[{"OBJECT_NAME":"LEMUR-2-DEMBITZ","OBJECT_ID":"2017-042T","EPOCH":"2026-03-09T11:23:53.232288","MEAN_MOTION":15.26947128,"ECCENTRICITY":0.00069617,"INCLINATION":97.3807,"RA_OF_ASC_NODE":250.9241,"ARG_OF_PERICENTER":17.1421,"MEAN_ANOMALY":343.0051,"EPHEMERIS_TYPE":0,"CLASSIFICATION_TYPE":"U","NORAD_CAT_ID":42842,"ELEMENT_SET_NO":999,"REV_AT_EPOCH":47311,"BSTAR":0.00076560825,"MEAN_MOTION_DOT":0.00020231,"MEAN_MOTION_DDOT":0},{"OBJECT_NAME":"STARLINK-32804","OBJECT_ID":"2025-019T","EPOCH":"2026-03-09T10:45:52.428672","MEAN_MOTION":15.2759978,"ECCENTRICITY":0.00028227,"INCLINATION":43.0083,"RA_OF_ASC_NODE":90.3825,"ARG_OF_PERICENTER":284.4195,"MEAN_ANOMALY":75.6344,"EPHEMERIS_TYPE":0,"CLASSIFICATION_TYPE":"U","NORAD_CAT_ID":62846,"ELEMENT_SET_NO":999,"REV_AT_EPOCH":6221,"BSTAR":0.00083860627,"MEAN_MOTION_DOT":0.00022901,"MEAN_MOTION_DDOT":0}]
